ONEWEB-0055             
1 45443U 20020V   23056.85894849 -.00020540  00000+0 -58278-1 0  9998
2 45443  87.8808 260.9214 0001446  89.8893 270.2401 13.11230070144378
ONEWEB-0093             
1 45444U 20020W   23056.83391697 -.00000244  00000+0 -72321-3 0  9996
2 45444  87.8802 260.9290 0001209  90.8602 269.2664 13.11410565144439
ONEWEB-0029             
1 45445U 20020X   23056.85522838 -.00000037  00000+0 -14122-3 0  9997
2 45445  87.8806 260.9189 0001468  79.2942 280.8351 13.11415636144410
ONEWEB-0068             
1 45446U 20020Y   23056.82604930 -.00000449  00000+0 -13030-2 0  9992
2 45446  87.8799 260.9267 0001137  86.9631 273.1627 13.11419216144354
ONEWEB-0046             
1 45447U 20020Z   23056.82269591 -.00000543  00000+0 -15687-2 0  9998
2 45447  87.8801 260.9388 0001623  85.8669 274.2644 13.11416911144363
ONEWEB-0063             
1 45448U 20020AA  23056.85187141  .00000414  00000+0  11319-2 0  9995
2 45448  87.8810 260.9159 0001812  84.6156 275.5179 13.11417779144458
ONEWEB-0019             
1 45449U 20020AB  23056.82716511 -.00000461  00000+0 -13376-2 0  9991
2 45449  87.8801 260.9285 0001545  94.6700 265.4605 13.11416137144299
ONEWEB-0094             
1 45450U 20020AC  23057.07751108  .00000004  00000+0 -22522-4 0  9999
2 45450  87.9186 245.7073 0001521  90.6894 269.4412 13.18137925147349
ONEWEB-0087             
1 45451U 20020AD  23057.08973982  .00000564  00000+0  15549-2 0  9996
2 45451  87.8740 260.8359 0001347  75.0586 285.0691 13.11415916144387
ONEWEB-0082             
1 45452U 20020AE  23057.09197510  .00000551  00000+0  15178-2 0  9997
2 45452  87.8807 260.8428 0001042  79.1349 280.9896 13.11424229144471
ONEWEB-0050             
1 45453U 20020AF  23057.01914347  .00001890  00000+0  15022-3 0  9991
2 45453  87.5427 160.8435 0025693  11.5946 348.5873 14.99610896160237
ONEWEB-0034             
1 45454U 20020AG  23056.80474241 -.00000088  00000+0 -28420-3 0  9998
2 45454  87.8803 260.9195 0001446  82.7603 277.3689 13.11411729144349
ONEWEB-0060             
1 45455U 20020AH  23056.58371190 -.00000437  00000+0 -12689-2 0  9990
2 45455  87.8801 260.9739 0001520  87.8269 272.3033 13.11412214144279
ONEWEB-0086             
1 45456U 20020AJ  23056.83165659 -.00000580  00000+0 -16736-2 0  9996
2 45456  87.8808 260.9185 0001355  84.6292 275.4990 13.11417815144367
ONEWEB-0088             
1 45457U 20020AK  23056.80698131 -.00000174  00000+0 -52705-3 0  9996
2 45457  87.8792 260.9209 0001539  81.2530 278.8772 13.11414252144298
ONEWEB-0102             
1 47258U 20100A   23056.84263939  .00000268  00000+0  71080-3 0  9993
2 47258  87.8977 230.5014 0001412 109.5392 250.5889 13.12442041106361
ONEWEB-0109             
1 47259U 20100B   23056.85322874  .00000321  00000+0  85633-3 0  9998
2 47259  87.8938 230.5134 0001463  94.6507 265.4788 13.12442890106196
ONEWEB-0110             
1 47260U 20100C   23056.87651500 -.00000208  00000+0 -61373-3 0  9994
2 47260  87.8934 230.4801 0001357 104.5565 255.5714 13.12443192106365
ONEWEB-0111             
1 47261U 20100D   23056.52709542  .00000014  00000+0  30152-5 0  9993
2 47261  87.8936 230.5325 0001445 102.4852 257.6438 13.12440844106158
ONEWEB-0114             
1 47262U 20100E   23057.01630411  .00000332  00000+0  88848-3 0  9993
2 47262  87.8935 230.4605 0001942 113.5950 246.5382 13.12441697106176
ONEWEB-0117             
1 47263U 20100F   23056.85534602  .00000620  00000+0  16870-2 0  9995
2 47263  87.8940 230.5199 0001559  95.2700 264.8606 13.12444748106166
ONEWEB-0118             
1 47264U 20100G   23056.73463104 -.00000375  00000+0 -10767-2 0  9999
2 47264  87.8940 230.4971 0002324 101.5925 258.5464 13.12442503106344
ONEWEB-0119             
1 47265U 20100H   23056.76216747  .00000220  00000+0  57644-3 0  9995
2 47265  87.8973 230.5176 0001419  95.7868 264.3422 13.12445596106325
ONEWEB-0120             
1 47266U 20100J   23056.86910112  .00000035  00000+0  61462-4 0  9992
2 47266  87.8900 230.5179 0001712 101.2984 258.8337 13.12437100106366
ONEWEB-0121             
1 47267U 20100K   23057.00359907  .00000414  00000+0  11144-2 0  9990
2 47267  87.8932 230.4679 0001362  92.4694 267.6590 13.12443919106292
ONEWEB-0122             
1 47268U 20100L   23056.99723609 -.00000541  00000+0 -15393-2 0  9995
2 47268  87.8938 230.4636 0001899 101.9110 258.2231 13.12446246106201
ONEWEB-0123             
1 47269U 20100M   23056.99300117  .00000191  00000+0  49568-3 0  9992
2 47269  87.8967 230.4743 0001508  96.5941 263.5360 13.12442098106349
ONEWEB-0124             
1 47270U 20100N   23056.75158885 -.00000141  00000+0 -42734-3 0  9996
2 47270  87.8933 230.5186 0001168  88.5290 271.5973 13.12441561106192
ONEWEB-0125             
1 47271U 20100P   23056.88074985 -.00000308  00000+0 -89123-3 0  9997
2 47271  87.8935 230.5101 0001651 100.1183 260.0132 13.12441519106273
ONEWEB-0126             
1 47272U 20100Q   23056.75477689 -.00000022  00000+0 -97588-4 0  9990
2 47272  87.8938 230.5305 0001549 104.6958 255.4342 13.12440969106323
ONEWEB-0127             
1 47273U 20100R   23056.87016631 -.00000036  00000+0 -13508-3 0  9994
2 47273  87.8972 230.4838 0001578  99.4275 260.7032 13.12440614106363
ONEWEB-0128             
1 47274U 20100S   23056.73886600 -.00000372  00000+0 -10695-2 0  9997
2 47274  87.8942 230.5051 0001186 105.2459 254.8801 13.12442294106368
ONEWEB-0129             
1 47275U 20100T   23056.87228829 -.00000061  00000+0 -20519-3 0  9998
2 47275  87.8933 230.5207 0002912 128.2636 231.8755 13.12442821106316
ONEWEB-0130             
1 47276U 20100U   23056.51651069 -.00000335  00000+0 -96725-3 0  9992
2 47276  87.8932 230.5845 0001432  99.1745 260.9546 13.12439850106237
ONEWEB-0131             
1 47277U 20100V   23056.74309903 -.00000350  00000+0 -10093-2 0  9995
2 47277  87.8933 230.4842 0001376  95.2435 264.8851 13.12442911106307
ONEWEB-0132             
1 47278U 20100W   23056.84899768  .00000356  00000+0  95341-3 0  9994
2 47278  87.8936 230.4647 0001625 103.3065 256.8245 13.12443021106212
ONEWEB-0133             
1 47279U 20100X   23057.01840713  .00000169  00000+0  43394-3 0  9994
2 47279  87.8971 230.4693 0001424  95.8135 264.3155 13.12439231106394
ONEWEB-0134             
1 47280U 20100Y   23056.83416218  .00000054  00000+0  11485-3 0  9993
2 47280  87.8929 230.4921 0001312 107.3787 252.7485 13.12444064106343
ONEWEB-0135             
1 47281U 20100Z   23057.03110848 -.00000198  00000+0 -58556-3 0  9998
2 47281  87.8966 230.4499 0001411 104.3345 255.7940 13.12442349106390
ONEWEB-0136             
1 47282U 20100AA  23056.51862183 -.00000342  00000+0 -98668-3 0  9996
2 47282  87.8933 230.5919 0001314 122.6289 237.4966 13.12445108106251
ONEWEB-0137             
1 47283U 20100AB  23056.85957546  .00000342  00000+0  91598-3 0  9995
2 47283  87.8937 230.4891 0001690  99.8910 260.2409 13.12446880106206
ONEWEB-0138             
1 47284U 20100AC  23056.53132160  .00000143  00000+0  36134-3 0  9992
2 47284  87.8936 230.5655 0001501 100.8290 259.3007 13.12440270106244
ONEWEB-0139             
1 47285U 20100AD  23056.73251511 -.00000370  00000+0 -10630-2 0  9993
2 47285  87.8935 230.5644 0001327 103.1150 257.0127 13.12443064106342
ONEWEB-0140             
1 47286U 20100AE  23056.75369580  .00000013  00000+0 -38809-6 0  9997
2 47286  87.8938 230.4949 0001391 101.8047 258.3237 13.12444720106317
ONEWEB-0141             
1 47287U 20100AF  23056.85220649  .00000377  00000+0  10137-2 0  9993
2 47287  87.8936 230.4742 0001869  94.3353 265.7989 13.12431715106319
ONEWEB-0142             
1 47288U 20100AG  23056.84373058  .00000392  00000+0  10548-2 0  9999
2 47288  87.8938 230.5265 0001620 100.2581 259.8730 13.12442461106305
ONEWEB-0143             
1 47289U 20100AH  23057.02687036 -.00000076  00000+0 -24757-3 0  9994
2 47289  87.8933 230.4516 0001521  94.5985 265.5317 13.12440199106303
ONEWEB-0144             
1 47290U 20100AJ  23056.84688964  .00000310  00000+0  82747-3 0  9998
2 47290  87.8937 230.5025 0001404 108.2518 251.8763 13.12442917106202
ONEWEB-0145             
1 47291U 20100AK  23056.74099304 -.00000323  00000+0 -93364-3 0  9995
2 47291  87.8968 230.5225 0001647  99.5451 260.5864 13.12444598106381
ONEWEB-0146             
1 47292U 20100AL  23057.04168902 -.00000777  00000+0 -21947-2 0  9991
2 47292  87.8938 230.4761 0001486  74.2879 285.8413 13.12442927106337
ONEWEB-0147             
1 47293U 20100AM  23056.85747551  .00000388  00000+0  10426-2 0  9999
2 47293  87.8937 230.4760 0001288 114.5056 245.6207 13.12441650106204
ONEWEB-0115             
1 48042U 21025A   23057.14143396  .00000478  00000+0  12727-2 0  9995
2 48042  87.9079 200.1071 0001262  96.6412 263.4861 13.13467596 95155
ONEWEB-0152             
1 48043U 21025B   23056.84941046  .00000314  00000+0  82414-3 0  9990
2 48043  87.9075 200.1534 0001396 105.3230 254.8054 13.13472391 95067
ONEWEB-0153             
1 48044U 21025C   23057.13084320  .00000099  00000+0  23715-3 0  9996
2 48044  87.9080 200.0868 0001565 107.0176 253.1125 13.13472428 95106
ONEWEB-0154             
1 48045U 21025D   23056.82400053 -.00000298  00000+0 -85105-3 0  9991
2 48045  87.9074 200.1604 0001549 104.4912 255.6389 13.13468776 95010
ONEWEB-0116             
1 48046U 21025E   23057.09486122  .00000078  00000+0  17750-3 0  9998
2 48046  87.9041 200.1053 0001379  92.3829 267.7458 13.13471955 95199
ONEWEB-0150             
1 48047U 21025F   23057.14354008  .00000367  00000+0  97073-3 0  9999
2 48047  87.9072 200.0975 0001731 106.0996 254.0324 13.13472096 95093
ONEWEB-0107             
1 48048U 21025G   23057.14567829  .00001190  00000+0  32223-2 0  9997
2 48048  87.9073 200.0961 0001874 112.0391 248.0937 13.13467238 95077
ONEWEB-0101             
1 48049U 21025H   23056.88115853 -.00000297  00000+0 -84842-3 0  9998
2 48049  87.9073 200.1550 0001591 112.5181 247.6117 13.13469707 95013
